1 2
Sentine2A
1 40697U 15028A   24157.56421670  .00000260  00000-0  11586-3 0  9994
2 40697  98.5687 231.9990 0001177  97.4275 262.7041 14.30812918467673
Sentinel2B
1 42063U 17013A   24157.52921708  .00000264  00000-0  11736-3 0  9993
2 42063  98.5693 231.9585 0001189  93.7344 266.3975 14.30813256378581